# 2022 01 01 12 06 13.4  -03.11    122.87    142.0  3.6   0.0   0.0   0.740          1
 TGCM       21.60   1.000   P
 TGCM       38.60   1.000   S
 KGCM       22.70   1.000   P
 KGCM       40.80   1.000   S
 BGCI       24.70   1.000   P
 LUWI       24.10   1.000   P
 LUWI       41.90   1.000   S
 MRSI       24.60   1.000   P
 SMSI       26.00   1.000   P
 KMSI       28.40   1.000   P
 APSI       28.90   1.000   P
 TPCI       33.10   1.000   P
TBMCM       35.30   1.000   P
TOLI2       39.00   1.000   P
 TMSI       39.90   1.000   P
 BTCM       41.30   1.000   P
 TOCM       46.20   1.000   P
 MPSI       47.20   1.000   P
 LOCM       48.40   1.000   P
 RKCM       48.20   1.000   P
 SRSI       47.90   1.000   P
 SDCI       48.70   1.000   P
 BLCM       49.50   1.000   P
 SANI       53.80   1.000   P
# 2022 01 01 16 19 35.3  -04.62    120.16     10.0  2.4   0.0   0.0   0.400          2
 LOCM        2.10   1.000   P
 LUCM        5.40   1.000   P
 POCI       10.80   1.000   P
 RDCM       13.90   1.000   P
  PCI       15.20   1.000   P
 PICM       17.60   1.000   P
 BDCM       18.20   1.000   P
 SRSI       21.40   1.000   P
 TTSI       26.00   1.000   P
 MMCI       27.40   1.000   P
 TOCM       28.30   1.000   P
 MMSI       28.80   1.000   P
 APSI       30.00   1.000   P
# 2022 01 01 17 02 23.1  -04.31    120.46     10.0  3.0   0.0   0.0   1.040          3
 LUCM        3.40   1.000   P
 POCI        4.00   1.000   P
 LOCM        7.50   1.000   P
 LOCM       15.00   1.000   S
 PICM       13.20   1.000   P
  PCI       14.30   1.000   P
 RDCM       16.70   1.000   P
 DOCM       18.10   1.000   P
 BDCM       18.30   1.000   P
 SDCI       21.90   1.000   P
 PMCI       22.60   1.000   P
 MSCM       21.50   1.000   P
 TLCM       23.60   1.000   P
 APSI       23.60   1.000   P
 SRSI       23.30   1.000   P
 BGCM       24.70   1.000   P
 MTCM       25.00   1.000   P
 BLCM       25.60   1.000   P
 WMCM       26.30   1.000   P
 TOCM       28.50   1.000   P
 MPSI       28.70   1.000   P
 TTSI       33.70   1.000   P
 BTCM       32.00   1.000   P
 TPCI       31.80   1.000   P
 MMCI       34.70   1.000   P
 RKCM       32.90   1.000   P
 MMSI       34.90   1.000   P
 MRSI       36.40   1.000   P
 LUWI       40.20   1.000   P
 LPCM       40.90   1.000   P
TOLI2       39.60   1.000   P
 LKUC       42.80   1.000   P
 SPSI       43.80   1.000   P
 KKSI       48.90   1.000   P
 TGCM       50.00   1.000   P
# 2022 01 02 04 35 19.3  -03.56    120.26     19.0  3.0   0.0   0.0   0.850          4
 PICM        6.90   1.000   P
 PICM       11.90   1.000   S
 SDCI       11.20   1.000   P
 SDCI       19.30   1.000   S
 DOCM       11.20   1.000   P
 DOCM       19.70   1.000   S
  PCI       11.00   1.000   P
  PCI       18.70   1.000   S
 BGCM       13.00   1.000   P
 BLCM       15.40   1.000   P
 BDCM       14.50   1.000   P
 LUCM       17.60   1.000   P
 POCI       19.00   1.000   P
 MPSI       18.10   1.000   P
 RDCM       18.10   1.000   P
 LOCM       19.00   1.000   P
 PMCI       20.00   1.000   P
 TPCI       21.40   1.000   P
 APSI       25.10   1.000   P
TOLI2       30.60   1.000   P
 MSCM       32.30   1.000   P
 SRSI       32.20   1.000   P
 TOCM       38.90   1.000   P
 MMCI       41.10   1.000   P
 SMSI       40.10   1.000   P
# 2022 01 02 08 41 32.0  -05.63    121.04     11.0  1.3   0.0   0.0   0.760          5
 MTCM        3.40   1.000   P
 MTCM        5.70   1.000   S
 SRSI        5.40   1.000   P
 TLCM        5.80   1.000   P
 TOCM        7.30   1.000   P
 TOCM       13.20   1.000   S
 RKCM       13.30   1.000   P
 RKCM       22.90   1.000   S
 BTCM       17.20   1.000   P
# 2022 01 02 08 47 04.4  -03.15    123.24    101.0  3.1   0.0   0.0   0.810          6
 TGCM       17.80   1.000   P
 TGCM       31.10   1.000   S
 KGCM       20.10   1.000   P
 KGCM       36.50   1.000   S
 LUWI       21.20   1.000   P
 KMSI       20.50   1.000   P
 SMSI       25.60   1.000   P
 MRSI       25.50   1.000   P
 MRSI       45.40   1.000   S
TBMCM       28.10   1.000   P
 APSI       30.30   1.000   P
TOLI2       42.00   1.000   P
 RKCM       48.90   1.000   P
 SRSI       49.00   1.000   P
 MPSI       52.00   1.000   P
 LOCM       51.20   1.000   P
# 2022 01 02 20 51 41.9  -04.29    120.48     10.0  3.3   0.0   0.0   1.370          7
 LUCM        3.00   1.000   P
 POCI        2.60   1.000   P
 LOCM        7.30   1.000   P
 PICM       13.30   1.000   P
 PICM       23.50   1.000   S
  PCI       14.20   1.000   P
 RDCM       16.60   1.000   P
 RDCM       30.10   1.000   S
 DOCM       17.80   1.000   P
 BDCM       19.30   1.000   P
 SDCI       20.40   1.000   P
 PMCI       22.90   1.000   P
 APSI       22.20   1.000   P
 TLCM       22.70   1.000   P
 TLCM       39.70   1.000   S
 MSCM       22.90   1.000   P
 SRSI       22.20   1.000   P
 MTCM       24.10   1.000   P
 WMCM       26.20   1.000   P
 TOCM       28.50   1.000   P
 MPSI       28.70   1.000   P
 TTSI       33.20   1.000   P
 MMCI       34.90   1.000   P
 MRSI       37.70   1.000   P
 MRSI       66.80   1.000   S
TOLI2       40.60   1.000   P
 PPCM       43.20   1.000   P
 WKCM       42.60   1.000   P
 SPSI       45.60   1.000   P
 SMSI       49.20   1.000   P
 LSCM       49.30   1.000   P
# 2022 01 03 01 50 57.2  -06.83    119.55     11.0  2.6   0.0   0.0   0.460          8
 PPCM        5.00   1.000   P
 PPCM        9.70   1.000   S
 SPSI        6.10   1.000   P
 SPSI       11.20   1.000   S
 LPCM        7.20   1.000   P
 LSCM       12.70   1.000   P
 LSCM       21.90   1.000   S
 PMSI       14.40   1.000   P
 PMSI       24.90   1.000   S
 TTSI       17.00   1.000   P
 PWCM       16.80   1.000   P
 MMCI       16.50   1.000   P
 MMCI       28.80   1.000   S
 WUPC       34.90   1.000   S
 KAPI       21.60   1.000   P
 KAPI       38.00   1.000   S
 BBCM       23.70   1.000   P
 BBCM       41.40   1.000   S
 MSCM       26.50   1.000   P
 BKSI       27.90   1.000   P
 BKSI       49.10   1.000   S
 KJCM       30.00   1.000   P
 KJCM       53.90   1.000   S
 SRSI       31.80   1.000   P
 SRSI       55.10   1.000   S
# 2022 01 03 02 04 18.4  -02.77    121.96    186.0  4.0   0.0   0.0   0.970          9
 MRSI       24.60   1.000   P
 MRSI       43.40   1.000   S
 SMSI       27.00   1.000   P
 SMSI       48.20   1.000   S
 TPCI       50.30   1.000   S
 KGCM       29.70   1.000   P
 KGCM       52.30   1.000   S
 BBCI       29.10   1.000   P
 BBCI       53.50   1.000   S
 TGCM       29.30   1.000   P
 TGCM       52.70   1.000   S
 LUWI       32.90   1.000   P
 BGCI       36.00   1.000   P
 BGCI       63.10   1.000   S
 KMSI       38.90   1.000   P
 KMSI       68.20   1.000   S
 MPSI       38.30   1.000   P
 MPSI       67.10   1.000   S
 PICM       37.80   1.000   P
 PICM       67.50   1.000   S
 POCI       38.90   1.000   P
 BLCM       41.00   1.000   P
 BLCM       71.50   1.000   S
 SDCI       41.10   1.000   P
 SDCI       72.20   1.000   S
 LUCM       41.20   1.000   P
 DOCM       41.40   1.000   P
 DOCM       74.60   1.000   S
  PCI       42.60   1.000   P
 LOCM       44.50   1.000   P
 BDCM       44.00   1.000   P
TBMCM       45.90   1.000   P
TBMCM       81.90   1.000   S
 BTCM       45.40   1.000   P
 RDCM       48.20   1.000   P
 TOCM       48.30   1.000   P
 SRSI       48.60   1.000   P
 RKCM       51.90   1.000   P
 MSCM       52.00   1.000   P
 WUPC       56.50   1.000   P
 TTSI       60.60   1.000   P
 MMCI       62.70   1.000   P
 PSSI       65.10   1.000   P
 LPCM       67.80   1.000   P
 SANI       66.30   1.000   P
 BBCM       81.80   1.000   P
 OBMI       85.00   1.000   P
 GHMI       84.60   1.000   P
 MTAI       94.00   1.000   P
# 2022 01 03 08 31 40.2  -03.29    123.01     42.0  4.1   0.0   0.0   1.480         10
 BGCI       14.60   1.000   P
 LUWI       14.90   1.000   P
 LUWI       28.30   1.000   S
 TGCM       14.10   1.000   P
 TGCM       26.60   1.000   S
 KGCM       16.10   1.000   P
 KGCM       30.00   1.000   S
 KMSI       21.70   1.000   P
 KMSI       38.90   1.000   S
 MRSI       20.60   1.000   P
 MRSI       37.70   1.000   S
 SMSI       22.80   1.000   P
 SMSI       41.00   1.000   S
TBMCM       30.40   1.000   P
 TPCI       30.70   1.000   P
 BBCI       34.40   1.000   P
 TMSI       40.80   1.000   P
TOLI2       39.10   1.000   P
 TOCM       45.40   1.000   P
 MTCM       47.40   1.000   P
 RKCM       44.30   1.000   P
 SRSI       44.00   1.000   P
 LOCM       46.60   1.000   P
 MPSI       48.20   1.000   P
 DOCM       49.40   1.000   P
 BLCM       50.90   1.000   P
 BDCM       51.70   1.000   P
 LBMI       67.90   1.000   P
 MMCI       63.90   1.000   P
 LPCM       68.50   1.000   P
 WWCI       70.00   1.000   P
 NBMI       73.30   1.000   P
 BBCM       81.30   1.000   P
 MTAI       85.00   1.000   P
 TAMI       88.00   1.000   P
 KRAI       87.60   1.000   P
TMTMM      102.20   1.000   P
WSTMM      107.60   1.000   P
# 2022 01 03 13 56 21.0  -04.34    120.50     10.0  3.0   0.0   0.0   0.890         11
 POCI        3.60   1.000   P
 POCI        7.30   1.000   S
 LUCM        3.70   1.000   P
 LUCM        7.50   1.000   S
 LOCM        7.90   1.000   P
 PICM       14.30   1.000   P
 PICM       25.00   1.000   S
  PCI       15.70   1.000   P
  PCI       26.10   1.000   S
 RDCM       18.40   1.000   P
 RDCM       31.40   1.000   S
 DOCM       18.90   1.000   P
 DOCM       33.30   1.000   S
 BDCM       19.90   1.000   P
 SDCI       20.70   1.000   P
 SDCI       35.90   1.000   S
 PMCI       22.40   1.000   P
 TLCM       23.10   1.000   P
 MSCM       21.20   1.000   P
 SRSI       22.80   1.000   P
 MTCM       24.80   1.000   P
 BLCM       27.00   1.000   P
 TOCM       28.50   1.000   P
 WUPC       29.50   1.000   P
 BTCM       31.10   1.000   P
 TTSI       33.80   1.000   P
 RKCM       33.00   1.000   P
 MMCI       34.90   1.000   P
 MRSI       37.70   1.000   P
# 2022 01 04 02 42 39.0  -04.34    119.55     10.0  3.6   0.0   0.0   0.910         12
 RDCM        1.80   1.000   P
 RDCM        4.60   1.000   S
 PMCI        5.00   1.000   P
 PMCI       10.60   1.000   S
 BDCM        9.30   1.000   P
 BDCM       17.60   1.000   S
  PCI       11.10   1.000   P
  PCI       17.60   1.000   S
 DOCM       13.20   1.000   P
 LOCM       12.20   1.000   P
 LOCM       22.30   1.000   S
 LUCM       16.80   1.000   P
 PICM       16.20   1.000   P
 SDCI       17.60   1.000   P
 SDCI       29.70   1.000   S
 POCI       22.00   1.000   P
 BLCM       21.80   1.000   P
 BGCM       26.00   1.000   P
 MSCM       23.90   1.000   P
 MMCI       27.50   1.000   P
 TLCM       31.10   1.000   P
 MPSI       29.60   1.000   P
 TTSI       29.20   1.000   P
 WUPC       30.10   1.000   P
 SRSI       31.10   1.000   P
 MTCM       33.30   1.000   P
 LPCM       36.40   1.000   P
 PMSI       38.00   1.000   P
 TOCM       37.60   1.000   P
 PPCM       39.10   1.000   P
 RKCM       41.80   1.000   P
 SPSI       43.10   1.000   P
# 2022 01 04 05 26 43.5  -03.83    122.28     10.0  3.1   0.0   0.0   0.680         13
 LUWI       10.50   1.000   P
 LUWI       18.50   1.000   S
 APSI       12.20   1.000   P
 APSI       21.50   1.000   S
 MRSI       23.20   1.000   P
 TGCM       27.90   1.000   P
 BTCM       30.60   1.000   P
 SMSI       31.60   1.000   P
 SRSI       36.40   1.000   P
 LOCM       36.40   1.000   P
TOLI2       39.60   1.000   P
 DOCM       41.50   1.000   P
 MSCM       42.70   1.000   P
 MPSI       42.30   1.000   P
 BDCM       44.40   1.000   P
TBMCM       45.10   1.000   P
 TTSI       51.70   1.000   P
# 2022 01 04 19 40 31.4  -03.02    123.63    117.0  2.9   0.0   0.0   0.200         14
 KMSI       20.00   1.000   P
 TGCM       20.30   1.000   P
 BGCI       21.40   1.000   P
 BGCI       37.40   1.000   S
 KGCM       21.90   1.000   P
TBMCM       24.10   1.000   P
 LUWI       25.30   1.000   P
 LUWI       45.10   1.000   S
 SMSI       28.90   1.000   P
 APSI       35.90   1.000   P
 BTCM       45.60   1.000   P
# 2022 01 05 03 11 10.0  -04.38    120.48     10.0  3.3   0.0   0.0   0.810         15
 LUCM        3.50   1.000   P
 LUCM        6.80   1.000   S
 POCI        2.80   1.000   P
 LOCM        7.70   1.000   P
 LOCM       14.00   1.000   S
 PICM       13.90   1.000   P
  PCI       16.30   1.000   P
 RDCM       17.10   1.000   P
 RDCM       30.70   1.000   S
 DOCM       19.30   1.000   P
 BDCM       20.60   1.000   P
 SDCI       21.50   1.000   P
 PMCI       22.40   1.000   P
 MSCM       21.10   1.000   P
 TLCM       21.70   1.000   P
 SRSI       22.30   1.000   P
 APSI       22.50   1.000   P
 MTCM       24.50   1.000   P
 BGCM       26.60   1.000   P
 BLCM       26.40   1.000   P
 TOCM       27.80   1.000   P
 TTSI       31.60   1.000   P
 MPSI       31.50   1.000   P
 RKCM       32.20   1.000   P
 MMCI       33.90   1.000   P
 MRSI       38.30   1.000   P
 PPCM       40.90   1.000   P
 SPSI       43.40   1.000   P
# 2022 01 05 21 56 43.1  -02.40    121.44     57.0  3.3   0.0   0.0   0.760         16
 TPCI       11.80   1.000   P
 MRSI       12.90   1.000   P
 MRSI       24.00   1.000   S
 BBCI       12.80   1.000   P
TOLI2       15.40   1.000   P
TOLI2       29.00   1.000   S
 SMSI       17.80   1.000   P
 SMSI       32.10   1.000   S
 KGCM       23.70   1.000   P
 APSI       25.20   1.000   P
 MPSI       25.90   1.000   P
 TGCM       26.90   1.000   P
 TGCM       48.20   1.000   S
 PICM       30.40   1.000   P
 BLCM       30.60   1.000   P
 SDCI       33.10   1.000   P
 LUWI       32.50   1.000   P
 DOCM       32.80   1.000   P
 LUCM       36.30   1.000   P
 LOCM       39.40   1.000   P
 RDCM       41.00   1.000   P
 SRSI       46.60   1.000   P
 RKCM       52.10   1.000   P
 MMCI       59.70   1.000   P
 LKCI       60.80   1.000   P
 MMSI       58.50   1.000   P
 PKCI       71.20   1.000   P
 BBCM       82.70   1.000   P
# 2022 01 06 08 40 03.6  -04.39    120.49     10.0  2.9   0.0   0.0   1.170         17
 POCI        2.60   1.000   P
 LUCM        3.10   1.000   P
 LOCM        6.80   1.000   P
 RDCM       19.70   1.000   P
 DOCM       17.50   1.000   P
 BDCM       19.70   1.000   P
 TLCM       21.80   1.000   P
 MSCM       20.90   1.000   P
 PMCI       22.60   1.000   P
 SRSI       22.00   1.000   P
 APSI       22.50   1.000   P
 BLCM       26.40   1.000   P
 TTSI       31.70   1.000   P
 MPSI       32.00   1.000   P
 RKCM       33.70   1.000   P
 MMCI       34.40   1.000   P
 LUWI       38.70   1.000   P
 MRSI       37.40   1.000   P
TOLI2       42.10   1.000   P
 SMSI       48.40   1.000   P
 BNSI       48.20   1.000   P
 BBCM       56.30   1.000   P
# 2022 01 06 08 55 21.9  -05.24    121.53     10.0  3.3   0.0   0.0   1.080         18
 WMCM        1.90   1.000   P
 TOCM        8.40   1.000   P
 BTCM        9.50   1.000   P
 MTCM       10.30   1.000   P
 RKCM       12.70   1.000   P
 SRSI       12.10   1.000   P
 TLCM       14.20   1.000   P
 BHCM       16.20   1.000   P
 POCI       21.10   1.000   P
 LKUC       23.40   1.000   P
 MSCM       23.70   1.000   P
 APSI       23.90   1.000   P
 LUCM       25.80   1.000   P
 LOCM       25.90   1.000   P
 WUPC       26.80   1.000   P
 TTSI       34.00   1.000   P
  PCI       36.10   1.000   P
 RDCM       36.70   1.000   P
 MMCI       38.30   1.000   P
 LPCM       40.40   1.000   P
 DOCM       38.90   1.000   P
 SPSI       41.60   1.000   P
 BNSI       43.20   1.000   P
 BLCM       45.00   1.000   P
 BBCM       50.40   1.000   P
 KAPI       51.50   1.000   P
 SMSI       52.00   1.000   P
 BKSI       54.40   1.000   P
TOLI2       55.70   1.000   P
 SMKI       69.10   1.000   P
# 2022 01 06 14 41 04.2  -02.97    123.39    152.0  2.8   0.0   0.0   0.920         19
 TGCM       24.50   1.000   P
 KMSI       24.50   1.000   P
 KGCM       23.30   1.000   P
 BGCI       24.50   1.000   P
 LUWI       26.50   1.000   P
TBMCM       27.30   1.000   P
 SMSI       27.80   1.000   P
 APSI       35.70   1.000   P
 TMSI       36.00   1.000   P
# 2022 01 06 23 15 41.5  -04.40    120.49     10.0  2.5   0.0   0.0   0.880         20
 LUCM        3.50   1.000   P
 POCI        4.10   1.000   P
 LOCM        8.90   1.000   P
  PCI       15.90   1.000   P
 MSCM       22.40   1.000   P
 SRSI       20.80   1.000   P
 APSI       23.90   1.000   P
 MMSI       35.40   1.000   P
# 2022 01 07 02 49 39.2  -04.32    120.48     10.0  2.4   0.0   0.0   0.730         21
 LUCM        4.50   1.000   P
 POCI        4.40   1.000   P
 LOCM        8.90   1.000   P
 LOCM       15.70   1.000   S
 PICM       14.30   1.000   P
 PICM       23.90   1.000   S
  PCI       15.40   1.000   P
 RDCM       17.90   1.000   P
 BDCM       20.80   1.000   P
 TLCM       23.10   1.000   P
 MSCM       22.50   1.000   P
 SRSI       24.00   1.000   P
 MPSI       29.60   1.000   P
# 2022 01 07 11 03 19.1  -03.58    119.80     16.0  2.2   0.0   0.0   0.680         22
 SDCI        4.30   1.000   P
 SDCI        8.30   1.000   S
 DOCM        4.80   1.000   P
  PCI        7.90   1.000   P
  PCI       13.20   1.000   S
 BDCM       15.10   1.000   S
 BLCM        9.30   1.000   P
 PMCI       14.30   1.000   P
 PMCI       25.90   1.000   S
 RDCM       26.10   1.000   S
 MPSI       16.90   1.000   P
 LOCM       22.20   1.000   P
 LOCM       36.90   1.000   S
# 2022 01 07 18 51 51.1  -02.68    121.97    165.0  3.8   0.0   0.0   0.600         23
 MRSI       22.20   1.000   P
 MRSI       39.80   1.000   S
 SMSI       24.00   1.000   P
 SMSI       44.80   1.000   S
 TPCI       26.50   1.000   P
 TPCI       47.50   1.000   S
 KGCM       26.20   1.000   P
 BBCI       26.90   1.000   P
 TGCM       26.70   1.000   P
 APSI       29.30   1.000   P
 LUWI       31.00   1.000   P
 BGCI       34.50   1.000   P
 KMSI       36.20   1.000   P
 MPSI       37.90   1.000   P
 PICM       37.30   1.000   P
 POCI       38.20   1.000   P
 BLCM       39.10   1.000   P
 SDCI       39.80   1.000   P
 LUCM       41.70   1.000   P
 DOCM       40.70   1.000   P
  PCI       41.90   1.000   P
 WMCM       42.00   1.000   P
TBMCM       43.80   1.000   P
 LOCM       44.30   1.000   P
 BDCM       44.20   1.000   P
 BTCM       44.90   1.000   P
 RDCM       47.70   1.000   P
 TOCM       48.30   1.000   P
 PMCI       47.90   1.000   P
 MTCM       48.20   1.000   P
 SRSI       48.10   1.000   P
 TLCM       49.30   1.000   P
  MNI       49.00   1.000   P
 TMSI       49.50   1.000   P
 RKCM       51.50   1.000   P
 MSCM       51.80   1.000   P
 BUKI       52.20   1.000   P
 TTSI       60.40   1.000   P
 MMCI       62.80   1.000   P
 PSSI       64.50   1.000   P
 PWCM       64.20   1.000   P
 MMSI       63.20   1.000   P
 LPCM       67.40   1.000   P
 SANI       69.30   1.000   P
 SPSI       71.10   1.000   P
# 2022 01 08 01 48 43.2  -05.55    120.79     10.0  3.0   0.0   0.0   0.980         24
 TLCM        2.40   1.000   P
 SRSI        2.40   1.000   P
 MTCM        6.00   1.000   P
 MSCM        9.70   1.000   P
 MSCM       17.00   1.000   S
 TOCM       12.40   1.000   P
 WUPC       13.80   1.000   P
 RKCM       18.60   1.000   P
 WMCM       17.20   1.000   P
 LOCM       20.30   1.000   P
 TTSI       19.10   1.000   P
 POCI       20.40   1.000   P
 MMCI       26.90   1.000   P
 LPCM       28.80   1.000   P
 RDCM       31.70   1.000   P
 APSI       31.70   1.000   P
 MMSI       34.20   1.000   P
 PICM       34.00   1.000   P
 DOCM       37.10   1.000   P
 BBCM       41.40   1.000   P
 SMSI       58.50   1.000   P
# 2022 01 08 07 51 25.4  -05.49    120.76     10.0  2.9   0.0   0.0   0.940         25
 TLCM        2.40   1.000   P
 SRSI        2.60   1.000   P
 MTCM        5.80   1.000   P
 MSCM        9.60   1.000   P
 TOCM       12.90   1.000   P
 WUPC       13.90   1.000   P
 RKCM       20.00   1.000   P
 LOCM       18.00   1.000   P
 POCI       19.70   1.000   P
 TTSI       20.50   1.000   P
 MMCI       26.50   1.000   P
 LPCM       28.60   1.000   P
 PPCM       27.80   1.000   P
 APSI       30.90   1.000   P
 PICM       33.80   1.000   P
 DOCM       34.60   1.000   P
 BBCM       43.50   1.000   P
 SMSI       59.40   1.000   P
