# 2022 01 15 13 00 00.5  -04.32    120.45     10.0  3.6   0.0   0.0   1.280         51
 LUCM        3.10   1.000   P
 LUCM        7.00   1.000   S
 LOCM        7.20   1.000   P
 LOCM       14.00   1.000   S
 PICM       13.30   1.000   P
 PICM       24.30   1.000   S
  PCI       14.50   1.000   P
  PCI       26.00   1.000   S
 RDCM       17.00   1.000   P
 RDCM       30.10   1.000   S
 DOCM       17.90   1.000   P
 DOCM       31.90   1.000   S
 BDCM       20.00   1.000   P
 SDCI       20.00   1.000   P
 SDCI       35.10   1.000   S
 MSCM       20.60   1.000   P
 TLCM       22.10   1.000   P
 APSI       22.00   1.000   P
 SRSI       21.90   1.000   P
 BGCM       26.10   1.000   P
 BLCM       26.20   1.000   P
 WMCM       26.20   1.000   P
 TOCM       27.90   1.000   P
 WUPC       29.30   1.000   P
 MPSI       28.50   1.000   P
 TTSI       32.50   1.000   P
 MMCI       34.30   1.000   P
 RKCM       33.90   1.000   P
 MMSI       35.00   1.000   P
 MRSI       37.50   1.000   P
 LUWI       39.20   1.000   P
 PWCM       39.40   1.000   P
 LPCM       40.40   1.000   P
TOLI2       40.30   1.000   P
 PPCM       42.10   1.000   P
 LKUC       45.70   1.000   P
 BBCI       42.40   1.000   P
 SPSI       46.40   1.000   P
 SMSI       48.10   1.000   P
 LSCM       50.50   1.000   P
# 2022 01 16 05 39 55.4  -02.35    121.82     64.0  2.9   0.0   0.0   1.000         52
 MRSI       11.20   1.000   P
 MRSI       19.80   1.000   S
 BBCI       15.80   1.000   P
 SMSI       13.80   1.000   P
 TPCI       16.50   1.000   P
 KGCM       19.30   1.000   P
TOLI2       20.80   1.000   P
 TGCM       20.90   1.000   P
 APSI       25.70   1.000   P
 LUWI       32.10   1.000   P
 BGCM       30.20   1.000   P
# 2022 01 17 07 12 56.2  -03.25    123.96     10.0  3.5   0.0   0.0   0.230         53
 BGCI       16.50   1.000   P
TBMCM       21.30   1.000   P
 TGCM       21.10   1.000   P
 TGCM       37.60   1.000   S
 KGCM       25.50   1.000   P
 KGCM       44.70   1.000   S
 LUWI       25.80   1.000   P
 TMSI       31.20   1.000   P
 SMSI       34.10   1.000   P
 APSI       39.20   1.000   P
 TOCM       54.10   1.000   P
 GHMI       60.50   1.000   P
# 2022 01 17 08 42 01.6  -04.33    120.47     10.0  2.7   0.0   0.0   0.620         54
 POCI        4.60   1.000   P
 POCI        8.30   1.000   S
 LOCM        8.80   1.000   P
 LOCM       15.40   1.000   S
 PICM       14.10   1.000   P
 PICM       24.30   1.000   S
 RDCM       17.40   1.000   P
 RDCM       30.70   1.000   S
 DOCM       19.10   1.000   P
 DOCM       32.30   1.000   S
 MSCM       22.40   1.000   P
 TLCM       24.00   1.000   P
 APSI       23.70   1.000   P
 SRSI       23.80   1.000   P
 SRSI       40.50   1.000   S
 LSSN       25.30   1.000   P
 TOCM       28.60   1.000   P
# 2022 01 17 20 06 50.2  -05.52    121.10     10.0  3.1   0.0   0.0   1.030         55
 LSSN        2.10   1.000   P
 LSSN        5.70   1.000   S
 SRSI        4.40   1.000   P
 SRSI        8.80   1.000   S
 TLCM        6.20   1.000   P
 TLCM       12.40   1.000   S
 LKCI       17.90   1.000   P
 WUPC       19.20   1.000   P
 OSSN       17.60   1.000   P
 BHCM       19.00   1.000   P
 WKCM       25.10   1.000   P
 LUCM       24.60   1.000   P
 PWCM       24.30   1.000   P
 LKUC       24.40   1.000   P
 TTSI       23.80   1.000   P
 APSI       28.30   1.000   P
 KKSI       30.00   1.000   P
 MMCI       31.50   1.000   P
 LPCM       32.50   1.000   P
 SPSI       34.30   1.000   P
  KDI       35.90   1.000   P
 LSCM       39.20   1.000   P
 MMSI       37.70   1.000   P
 MPSI       49.90   1.000   P
 DBKI       89.50   1.000   P
# 2022 01 18 11 01 22.3  -06.67    119.89     11.0  2.3   0.0   0.0   0.430         56
 SPSI        7.20   1.000   P
 SPSI       12.70   1.000   S
 LPCM        8.40   1.000   P
 LPCM       15.00   1.000   S
 PWCM       11.00   1.000   P
 TTSI       13.00   1.000   P
 LSCM       12.80   1.000   P
 MMCI       16.60   1.000   P
 PMSI       19.10   1.000   P
 KAPI       24.90   1.000   P
 BBCM       24.90   1.000   P
 SRSI       26.20   1.000   P
# 2022 01 18 14 24 20.9  -05.40    121.36     10.0  3.1   0.0   0.0   1.000         57
 TOCM        5.90   1.000   P
 WMCM        6.00   1.000   P
 LSSN        6.20   1.000   P
 MTCM        6.20   1.000   P
 BTCM       10.30   1.000   P
 TLCM       10.00   1.000   P
 RKCM       12.10   1.000   P
 BHCM       18.10   1.000   P
 MSCM       20.40   1.000   P
 POCI       22.90   1.000   P
 LKUC       23.20   1.000   P
 WUPC       23.90   1.000   P
 OSSN       23.20   1.000   P
 LOCM       24.70   1.000   P
 LUCM       25.20   1.000   P
 APSI       27.00   1.000   P
 TTSI       29.40   1.000   P
 MMCI       35.70   1.000   P
 RDCM       35.80   1.000   P
 LPCM       37.50   1.000   P
 SPSI       38.90   1.000   P
 BBCM       47.30   1.000   P
 MPSI       48.80   1.000   P
 SMSI       54.60   1.000   P
TOLI2       56.10   1.000   P
 SANI       69.00   1.000   P
# 2022 01 19 22 13 34.7  -04.38    120.40     10.0  2.9   0.0   0.0   1.040         58
 LUCM        1.70   1.000   P
 LUCM        5.00   1.000   S
 LOCM        6.00   1.000   P
 LOCM       13.30   1.000   S
 PICM       13.80   1.000   P
 PICM       24.10   1.000   S
  PCI       14.60   1.000   P
 RDCM       17.40   1.000   P
 RDCM       29.80   1.000   S
 PMCI       22.60   1.000   P
 TLCM       21.60   1.000   P
 TLCM       38.80   1.000   S
 SRSI       20.90   1.000   P
 SRSI       39.30   1.000   S
 MTCM       24.10   1.000   P
 LSSN       25.00   1.000   P
 LSSN       44.00   1.000   S
 BLCM       23.70   1.000   P
 TOCM       28.60   1.000   P
 TOCM       50.30   1.000   S
 WUPC       28.30   1.000   P
 WUPC       50.40   1.000   S
 TTSI       30.60   1.000   P
 MPSI       31.60   1.000   P
 BTCM       33.10   1.000   P
 BTCM       56.30   1.000   S
 MMCI       33.90   1.000   P
 RKCM       32.50   1.000   P
 MMSI       35.90   1.000   P
 LUWI       39.90   1.000   P
 LUWI       69.90   1.000   S
 SMSI       48.60   1.000   P
# 2022 01 20 00 59 01.1  -02.82    121.88    197.0  4.0   0.0   0.0   1.210         59
 MRSI       25.60   1.000   P
 TPCI       28.40   1.000   P
 SMSI       28.20   1.000   P
 SMSI       50.70   1.000   S
 KGCM       30.00   1.000   P
 KGCM       55.40   1.000   S
 TGCM       31.70   1.000   P
 TGCM       56.70   1.000   S
 LUWI       34.50   1.000   P
 MPSI       37.20   1.000   P
 PICM       37.20   1.000   P
 BGCM       37.10   1.000   P
 KMSI       40.60   1.000   P
 BLCM       39.80   1.000   P
 LUCM       41.10   1.000   P
  PCI       40.90   1.000   P
 LOCM       44.30   1.000   P
 RDCM       47.00   1.000   P
TBMCM       47.70   1.000   P
 TOCM       49.20   1.000   P
 MTCM       48.70   1.000   P
 SRSI       48.80   1.000   P
 LSSN       49.70   1.000   P
 TMSI       54.10   1.000   P
 WUPC       56.50   1.000   P
 OSSN       56.60   1.000   P
 TTSI       60.30   1.000   P
 MMCI       61.60   1.000   P
 MMSI       61.70   1.000   P
 SPSI       69.60   1.000   P
 SANI       68.50   1.000   P
 SANI      121.70   1.000   S
 BBCM       81.50   1.000   P
# 2022 01 20 10 02 19.1  -05.83    121.02     10.0  2.3   0.0   0.0   0.690         60
 LSSN        6.00   1.000   P
 MTCM        5.00   1.000   P
 TOCM        8.80   1.000   P
 WUPC       17.10   1.000   P
 BTCM       19.40   1.000   P
 PWCM       19.40   1.000   P
 LOCM       26.40   1.000   P
 MMCI       28.30   1.000   P
# 2022 01 20 13 22 28.0  -05.20    120.67     10.0  3.1   0.0   0.0   1.530         61
 TLCM        6.60   1.000   P
 TLCM       12.40   1.000   S
 SRSI        6.10   1.000   P
 MTCM        8.60   1.000   P
 LSSN        9.30   1.000   P
 LOCM       12.90   1.000   P
 LOCM       22.00   1.000   S
 POCI       13.10   1.000   P
 POCI       24.50   1.000   S
 LUCM       16.50   1.000   P
 TOCM       15.20   1.000   P
 WUPC       17.10   1.000   P
 WUPC       29.70   1.000   S
 OSSN       17.40   1.000   P
 OSSN       30.10   1.000   S
 RKCM       22.50   1.000   P
 TTSI       21.70   1.000   P
 BTCM       24.20   1.000   P
 RDCM       28.00   1.000   P
 PWCM       25.60   1.000   P
 MMCI       28.00   1.000   P
  PCI       27.60   1.000   P
 BHCM       30.10   1.000   P
 BHCM       50.20   1.000   S
 PICM       28.80   1.000   P
 PICM       50.10   1.000   S
 APSI       28.60   1.000   P
 APSI       50.20   1.000   S
 LPCM       31.80   1.000   P
 WKCM       31.90   1.000   P
 MMSI       32.80   1.000   P
 SPSI       34.40   1.000   P
 LUWI       39.80   1.000   P
 BBCM       48.00   1.000   P
 BKSI       51.50   1.000   P
TOLI2       51.60   1.000   P
 SMSI       55.80   1.000   P
# 2022 01 21 16 01 36.2  -02.45    122.14     87.0  3.4   0.0   0.0   0.750         62
 MRSI       13.80   1.000   P
 MRSI       24.20   1.000   S
 SMSI       15.00   1.000   P
 SMSI       27.60   1.000   S
 KGCM       17.50   1.000   P
 KGCM       31.70   1.000   S
 TGCM       18.40   1.000   P
 TGCM       32.90   1.000   S
 TPCI       21.30   1.000   P
 TPCI       37.90   1.000   S
 APSI       26.40   1.000   P
 LUWI       28.70   1.000   P
 LUWI       51.10   1.000   S
 KMSI       30.70   1.000   P
 KMSI       54.10   1.000   S
 MPSI       36.70   1.000   P
TBMCM       38.50   1.000   P
TBMCM       70.50   1.000   S
 BLCM       40.80   1.000   P
 SDCI       38.60   1.000   P
 LUCM       41.60   1.000   P
  PCI       41.40   1.000   P
 TMSI       43.40   1.000   P
 LOCM       44.60   1.000   P
 BTCM       44.70   1.000   P
 RDCM       47.40   1.000   P
 SRSI       48.60   1.000   P
# 2022 01 22 12 45 11.4  -05.47    121.21     10.0  1.6   0.0   0.0   0.450         63
 LSSN        5.10   1.000   P
 MTCM        5.40   1.000   P
 MTCM        9.10   1.000   S
 TOCM        6.90   1.000   P
 TOCM       10.40   1.000   S
 SRSI        7.70   1.000   P
 SRSI       12.60   1.000   S
# 2022 01 23 21 31 33.7  -02.64    119.77     10.0  2.9   0.0   0.0   0.570         64
 MPSI        3.50   1.000   P
 MPSI        6.50   1.000   S
 BGCM        8.30   1.000   P
 BLCM       10.70   1.000   P
 SDCI       16.40   1.000   P
 DOCM       19.70   1.000   P
 BDCM       22.30   1.000   P
TOLI2       22.60   1.000   P
  PCI       22.40   1.000   P
 TPCI       24.10   1.000   P
 PMCI       27.60   1.000   P
 RDCM       28.20   1.000   P
 LUCM       32.10   1.000   P
 POCI       33.70   1.000   P
 LOCM       35.40   1.000   P
 MRSI       36.00   1.000   P
 APSI       37.10   1.000   P
 SMSI       43.30   1.000   P
 SRSI       49.00   1.000   P
 LUWI       53.60   1.000   P
 MMCI       52.20   1.000   P
 KUKI       63.20   1.000   P
# 2022 01 24 15 18 22.1  -04.38    120.48     10.0  2.6   0.0   0.0   1.230         65
 LUCM        3.50   1.000   P
 LUCM        7.30   1.000   S
 POCI        2.80   1.000   P
 POCI        6.00   1.000   S
 LOCM        7.60   1.000   P
 LOCM       14.20   1.000   S
 RDCM       17.50   1.000   P
 RDCM       30.70   1.000   S
 BDCM       20.10   1.000   P
 PMCI       22.10   1.000   P
 TLCM       22.70   1.000   P
 SRSI       38.20   1.000   S
 APSI       22.90   1.000   P
 TOCM       28.60   1.000   P
 TOCM       50.20   1.000   S
 TTSI       31.50   1.000   P
 BTCM       33.00   1.000   P
 RKCM       31.80   1.000   P
 MMCI       34.60   1.000   P
 LUWI       39.50   1.000   P
# 2022 01 24 16 35 34.6  -04.12    120.16     10.0  2.8   0.0   0.0   1.110         66
 LUCM        6.00   1.000   P
 LUCM       11.60   1.000   S
  PCI        8.10   1.000   P
 PICM        8.50   1.000   P
 PICM       14.60   1.000   S
 LOCM        9.00   1.000   P
 POCI       11.20   1.000   P
 POCI       19.40   1.000   S
 DOCM       12.10   1.000   P
 BDCM       12.30   1.000   P
 BDCM       21.60   1.000   S
 RDCM       12.60   1.000   P
 RDCM       20.20   1.000   S
 SDCI       14.70   1.000   P
 PMCI       16.90   1.000   P
 BLCM       21.30   1.000   P
 BLCM       37.20   1.000   S
 BGCM       19.40   1.000   P
 SRSI       28.80   1.000   P
 WUPC       32.90   1.000   P
 TTSI       34.50   1.000   P
 TOCM       34.70   1.000   P
 MMCI       34.90   1.000   P
 MMSI       34.80   1.000   P
 BTCM       38.30   1.000   P
 RKCM       38.90   1.000   P
# 2022 01 24 18 50 14.0  -05.48    120.76     10.0  2.6   0.0   0.0   1.330         67
 TLCM        3.50   1.000   P
 SRSI        3.60   1.000   P
 SRSI        6.10   1.000   S
 MTCM        6.60   1.000   P
 LSSN        7.60   1.000   P
 LSSN       12.30   1.000   S
 TOCM       14.20   1.000   P
 WUPC       15.10   1.000   P
 OSSN       15.50   1.000   P
 OSSN       26.50   1.000   S
 RKCM       20.40   1.000   P
 LOCM       17.10   1.000   P
 TTSI       20.70   1.000   P
 TTSI       35.20   1.000   S
 BTCM       23.80   1.000   P
 MMCI       27.10   1.000   P
 RDCM       26.90   1.000   P
 BDCM       35.00   1.000   P
 DOCM       35.20   1.000   P
 LUWI       38.60   1.000   P
 BLCM       43.90   1.000   P
# 2022 01 24 22 27 33.9  -03.51    120.67     10.0  3.8   0.0   0.0   1.520         68
 PICM       12.00   1.000   P
 PICM       20.40   1.000   S
 POCI       15.60   1.000   P
 POCI       30.10   1.000   S
 SDCI       17.60   1.000   P
 SDCI       29.40   1.000   S
 BGCM       17.70   1.000   P
 BGCM       31.10   1.000   S
  PCI       16.50   1.000   P
 DOCM       17.50   1.000   P
 DOCM       29.10   1.000   S
 BLCM       20.80   1.000   P
 BLCM       34.90   1.000   S
 TPCI       19.50   1.000   P
 TPCI       34.10   1.000   S
 MPSI       22.10   1.000   P
 BDCM       20.90   1.000   P
 BDCM       35.40   1.000   S
 LOCM       21.20   1.000   P
 LOCM       39.90   1.000   S
 RDCM       24.40   1.000   P
 PMCI       26.40   1.000   P
 MRSI       26.60   1.000   P
TOLI2       30.70   1.000   P
 TLCM       34.00   1.000   P
 SRSI       32.00   1.000   P
 MTCM       33.70   1.000   P
 LSSN       37.20   1.000   P
 LUWI       36.90   1.000   P
 TOCM       35.70   1.000   P
 SMSI       37.00   1.000   P
 BTCM       39.20   1.000   P
 KGCM       37.70   1.000   P
 OSSN       41.50   1.000   P
 RKCM       39.50   1.000   P
 TGCM       42.40   1.000   P
 TTSI       45.70   1.000   P
 MMCI       46.90   1.000   P
 MMSI       44.00   1.000   P
 LPCM       52.00   1.000   P
 PPCM       54.80   1.000   P
 WKCM       51.10   1.000   P
 PMSI       56.40   1.000   P
 SPSI       58.00   1.000   P
# 2022 01 25 00 14 20.9  -04.29    120.52     10.0  3.4   0.0   0.0   0.830         69
 POCI        3.70   1.000   P
 POCI        7.20   1.000   S
 LUCM        4.00   1.000   P
 LOCM        8.10   1.000   P
 PICM       14.20   1.000   P
 PICM       24.70   1.000   S
  PCI       15.00   1.000   P
 RDCM       18.70   1.000   P
 RDCM       30.90   1.000   S
 DOCM       18.90   1.000   P
 BDCM       19.70   1.000   P
 BDCM       33.40   1.000   S
 SDCI       20.90   1.000   P
 SDCI       35.60   1.000   S
 PMCI       22.80   1.000   P
 TLCM       23.50   1.000   P
 TLCM       39.50   1.000   S
 SRSI       22.80   1.000   P
 MTCM       24.60   1.000   P
 BLCM       26.50   1.000   P
 WMCM       26.60   1.000   P
 WMCM       45.60   1.000   S
 LSSN       26.40   1.000   P
 TOCM       28.50   1.000   P
 TOCM       50.30   1.000   S
 WUPC       29.70   1.000   P
 WUPC       52.40   1.000   S
 MPSI       30.30   1.000   P
 OSSN       29.80   1.000   P
 BTCM       32.70   1.000   P
 TTSI       33.10   1.000   P
 RKCM       32.90   1.000   P
 MMCI       35.60   1.000   P
 MMSI       36.50   1.000   P
 BHCM       35.40   1.000   P
 MRSI       37.70   1.000   P
 LUWI       36.80   1.000   P
 PWCM       38.50   1.000   P
 LPCM       40.20   1.000   P
 PPCM       42.50   1.000   P
 SPSI       45.60   1.000   P
 SMSI       45.70   1.000   P
 KKSI       48.70   1.000   P
 LSCM       49.40   1.000   P
 BBCM       58.10   1.000   P
# 2022 01 25 10 21 57.5  -02.37    120.26     28.0  2.9   0.0   0.0   0.780         70
 MPSI       10.60   1.000   P
 MPSI       18.10   1.000   S
TOLI2       14.80   1.000   P
TOLI2       25.70   1.000   S
 BGCM       15.00   1.000   P
 BGCM       26.80   1.000   S
 BLCM       18.00   1.000   P
 PICM       22.40   1.000   P
 DOCM       24.50   1.000   P
  PCI       27.00   1.000   P
 BUKI       26.90   1.000   P
 MRSI       25.90   1.000   P
 SMSI       33.10   1.000   P
# 2022 01 25 13 39 18.5  -04.37    120.49     10.0  2.8   0.0   0.0   0.750         71
 LUCM        3.50   1.000   P
 POCI        2.40   1.000   P
 LOCM        7.90   1.000   P
  PCI       14.90   1.000   P
 RDCM       17.90   1.000   P
 DOCM       19.30   1.000   P
 BDCM       17.40   1.000   P
 SDCI       21.00   1.000   P
 PMCI       21.50   1.000   P
 TLCM       21.90   1.000   P
 SRSI       22.60   1.000   P
 MTCM       24.90   1.000   P
 LSSN       25.00   1.000   P
 WMCM       25.30   1.000   P
 BGCM       25.80   1.000   P
 TOCM       27.90   1.000   P
 TOCM       48.80   1.000   S
 OSSN       28.90   1.000   P
 TTSI       32.80   1.000   P
 MPSI       30.90   1.000   P
 BTCM       31.00   1.000   P
 RKCM       32.40   1.000   P
 MMCI       34.70   1.000   P
 MMSI       34.50   1.000   P
 BHCM       36.10   1.000   P
 PWCM       37.70   1.000   P
 LUWI       38.50   1.000   P
 LPCM       38.30   1.000   P
 MRSI       38.70   1.000   P
 PPCM       40.20   1.000   P
TOLI2       41.60   1.000   P
# 2022 01 25 15 57 16.6  -04.37    120.46     10.0  3.0   0.0   0.0   1.230         72
 LUCM        2.80   1.000   P
 POCI        2.10   1.000   P
 LOCM        6.90   1.000   P
 PICM       12.40   1.000   P
  PCI       15.80   1.000   P
 RDCM       17.10   1.000   P
 DOCM       19.10   1.000   P
 BDCM       18.40   1.000   P
 SDCI       21.00   1.000   P
 PMCI       23.30   1.000   P
 TLCM       21.40   1.000   P
 SRSI       21.60   1.000   P
 LSSN       24.10   1.000   P
 BGCM       25.30   1.000   P
 BLCM       25.20   1.000   P
 TOCM       27.50   1.000   P
 WUPC       27.50   1.000   P
 OSSN       29.10   1.000   P
 TTSI       33.20   1.000   P
 MPSI       31.10   1.000   P
 RKCM       32.90   1.000   P
 MMCI       34.50   1.000   P
 TPCI       33.10   1.000   P
 MMSI       35.30   1.000   P
 LKCI       36.00   1.000   P
 BHCM       36.40   1.000   P
 LPCM       38.30   1.000   P
 LUWI       38.50   1.000   P
 MRSI       38.90   1.000   P
TOLI2       42.80   1.000   P
 WKCM       41.90   1.000   P
 SPSI       43.20   1.000   P
 SMSI       48.00   1.000   P
 KKSI       48.00   1.000   P
 LSCM       48.10   1.000   P
 TGCM       50.70   1.000   P
 SGKI       53.80   1.000   P
# 2022 01 25 21 28 57.8  -04.30    120.48     10.0  2.8   0.0   0.0   0.340         73
 LUCM        5.10   1.000   P
 LUCM        9.00   1.000   S
 POCI        5.10   1.000   P
 LOCM        9.50   1.000   P
 LOCM       16.70   1.000   S
 PICM       12.80   1.000   P
  PCI       13.80   1.000   P
  PCI       25.30   1.000   S
 RDCM       17.90   1.000   P
 RDCM       30.90   1.000   S
 DOCM       18.80   1.000   P
 BDCM       19.10   1.000   P
 BDCM       33.10   1.000   S
 SDCI       20.40   1.000   P
 SRSI       24.30   1.000   P
 BGCM       25.00   1.000   P
 MTCM       25.00   1.000   P
 BLCM       25.50   1.000   P
 LSSN       25.80   1.000   P
 WMCM       26.10   1.000   P
 TOCM       28.60   1.000   P
 WUPC       29.70   1.000   P
 OSSN       30.00   1.000   P
 TTSI       31.70   1.000   P
 BTCM       31.70   1.000   P
 TPCI       32.00   1.000   P
 RKCM       33.40   1.000   P
 MMCI       33.60   1.000   P
 MMSI       35.10   1.000   P
 LKCI       36.80   1.000   P
 MRSI       38.10   1.000   P
 LUWI       37.50   1.000   P
 PWCM       38.80   1.000   P
TOLI2       39.80   1.000   P
 WKCM       42.60   1.000   P
 LKUC       42.70   1.000   P
 SWCM       46.70   1.000   P
 SMSI       47.20   1.000   P
 TGCM       50.10   1.000   P
