# 2022 01 08 08 01 01.5  -04.39    120.46     10.0  2.7   0.0   0.0   1.090         26
 LUCM        3.10   1.000   P
 POCI        3.30   1.000   P
 LOCM        7.60   1.000   P
 DOCM       18.20   1.000   P
 MSCM       21.10   1.000   P
 SRSI       22.00   1.000   P
 APSI       22.20   1.000   P
 MPSI       31.40   1.000   P
 MMCI       34.00   1.000   P
 RKCM       32.10   1.000   P
 MMSI       33.20   1.000   P
 PWCM       39.30   1.000   P
 LPCM       38.40   1.000   P
 LUWI       39.00   1.000   P
TOLI2       41.50   1.000   P
 SMSI       50.10   1.000   P
# 2022 01 08 11 50 04.1  -05.24    121.54     10.0  2.6   0.0   0.0   0.860         27
 WMCM        2.40   1.000   P
 TOCM        8.50   1.000   P
 TOCM       16.00   1.000   S
 BTCM        9.40   1.000   P
 MTCM       11.60   1.000   P
 RKCM       14.50   1.000   P
 SRSI       12.10   1.000   P
 POCI       21.90   1.000   P
 MSCM       23.60   1.000   P
 APSI       23.90   1.000   P
 LKCI       25.10   1.000   P
 LUCM       25.80   1.000   P
 LOCM       26.20   1.000   P
 WUPC       27.50   1.000   P
 LUWI       30.70   1.000   P
 TTSI       32.40   1.000   P
 MMCI       39.50   1.000   P
 LPCM       40.50   1.000   P
# 2022 01 08 18 15 52.7  -05.61    120.78     13.0  0.9   0.0   0.0   0.220         28
 TLCM        4.30   1.000   P
 TLCM        6.80   1.000   S
 SRSI        4.20   1.000   P
 SRSI        7.20   1.000   S
 MTCM        7.10   1.000   P
 MTCM       11.70   1.000   S
 MSCM       10.80   1.000   P
 MSCM       18.30   1.000   S
 LOCM       20.70   1.000   P
# 2022 01 09 02 35 46.3  -02.62    122.00    182.0  4.7   0.0   0.0   0.780         29
 MRSI       24.40   1.000   P
 MRSI       43.00   1.000   S
 SMSI       26.30   1.000   P
 SMSI       47.20   1.000   S
 KGCM       27.80   1.000   P
 TPCI       28.70   1.000   P
 TPCI       49.80   1.000   S
 BBCI       29.20   1.000   P
 TGCM       29.00   1.000   P
 TGCM       51.30   1.000   S
 APSI       31.50   1.000   P
 APSI       55.30   1.000   S
 LUWI       32.80   1.000   P
 LUWI       58.20   1.000   S
 BGCI       36.40   1.000   P
 BGCI       64.10   1.000   S
 KMSI       38.20   1.000   P
 MPSI       38.50   1.000   P
 MPSI       67.50   1.000   S
 BGCM       38.60   1.000   P
 PICM       38.90   1.000   P
 POCI       40.40   1.000   P
 BLCM       41.50   1.000   P
 SDCI       42.00   1.000   P
 SDCI       73.40   1.000   S
 LUCM       43.30   1.000   P
 DOCM       41.90   1.000   P
  PCI       42.80   1.000   P
 WMCM       44.60   1.000   P
TBMCM       45.30   1.000   P
TBMCM       80.70   1.000   S
 LOCM       45.50   1.000   P
 BDCM       45.10   1.000   P
 BTCM       46.50   1.000   P
 RDCM       49.20   1.000   P
 TOCM       50.10   1.000   P
 PMCI       49.00   1.000   P
 TMSI       50.70   1.000   P
 MTCM       49.90   1.000   P
 SRSI       49.80   1.000   P
 TLCM       50.70   1.000   P
 RKCM       53.10   1.000   P
 MSCM       53.20   1.000   P
 BUKI       53.40   1.000   P
 BUKI       94.00   1.000   S
 LKUC       57.00   1.000   P
 WUPC       58.40   1.000   P
 LKCI       61.50   1.000   P
 TTSI       62.30   1.000   P
 PSSI       63.70   1.000   P
 MMCI       64.20   1.000   P
 WKCM       64.10   1.000   P
 PWCM       64.40   1.000   P
 MMSI       64.40   1.000   P
 SGKI       66.60   1.000   P
 LPCM       68.80   1.000   P
 SANI       66.80   1.000   P
 PPCM       70.20   1.000   P
 PKCI       70.50   1.000   P
 SPSI       72.00   1.000   P
 SMKI       73.20   1.000   P
 TBKI       73.20   1.000   P
 PMSI       73.60   1.000   P
 SWCM       75.50   1.000   P
 LSCM       75.80   1.000   P
  BKB       78.90   1.000   P
 PMMI       79.00   1.000   P
 LBMI       80.50   1.000   P
 BBCM       83.90   1.000   P
 KAPI       84.20   1.000   P
 WWCI       84.00   1.000   P
 BBSI       85.60   1.000   P
 MGAI       88.80   1.000   P
 GHMI       84.60   1.000   P
 BKSI       86.50   1.000   P
 GLMI       86.60   1.000   P
  MKS       88.70   1.000   P
 WHMI       88.70   1.000   P
 NLAI       89.90   1.000   P
 KJCM       91.90   1.000   P
 KUKI       92.10   1.000   P
 MTAI       93.70   1.000   P
 BSSI       95.60   1.000   P
NSBMM      104.20   1.000   P
PSJCM      106.70   1.000   P
# 2022 01 09 12 19 05.4  -03.17    123.09    102.0  3.2   0.0   0.0   1.000         30
 TGCM       17.60   1.000   P
 TGCM       32.20   1.000   S
 BGCI       19.10   1.000   P
 LUWI       20.00   1.000   P
 LUWI       35.70   1.000   S
 MRSI       23.50   1.000   P
 MRSI       42.70   1.000   S
 SMSI       24.50   1.000   P
 SMSI       44.70   1.000   S
 APSI       28.00   1.000   P
 APSI       50.10   1.000   S
TBMCM       30.20   1.000   P
TBMCM       53.80   1.000   S
TOLI2       41.50   1.000   P
TOLI2       71.70   1.000   S
 RKCM       48.40   1.000   P
 SRSI       48.80   1.000   P
 MPSI       50.40   1.000   P
 LOCM       49.60   1.000   P
 SANI       48.80   1.000   P
# 2022 01 09 13 33 47.7  -04.21    119.54     10.0  2.7   0.0   0.0   0.800         31
 RDCM        1.50   1.000   P
 PMCI        4.80   1.000   P
 BDCM        7.50   1.000   P
  PCI        8.50   1.000   P
 DOCM       11.40   1.000   P
 PICM       15.00   1.000   P
 SDCI       14.60   1.000   P
 LOCM       14.50   1.000   P
 LUCM       15.70   1.000   P
 BLCM       20.60   1.000   P
 MSCM       26.60   1.000   P
 MMSI       28.90   1.000   P
 MMCI       29.80   1.000   P
 TTSI       33.40   1.000   P
 SRSI       32.00   1.000   P
 APSI       37.30   1.000   P
 RKCM       43.20   1.000   P
# 2022 01 09 20 08 30.4  -02.15    120.09     12.0  2.7   0.0   0.0   0.110         32
 MPSI       11.30   1.000   P
TOLI2       14.60   1.000   P
 BLCM       19.70   1.000   P
 TPCI       20.50   1.000   P
 TPCI       35.10   1.000   S
 SMSI       37.50   1.000   P
# 2022 01 10 05 27 11.4  -03.18    122.94    102.0  4.4   0.0   0.0   0.840         33
 TGCM       18.10   1.000   P
 TGCM       32.30   1.000   S
 KGCM       19.70   1.000   P
 KGCM       34.70   1.000   S
 BGCI       20.90   1.000   P
 BGCI       38.10   1.000   S
 LUWI       20.60   1.000   P
 LUWI       35.70   1.000   S
 MRSI       22.10   1.000   P
 MRSI       39.20   1.000   S
 KMSI       25.30   1.000   P
 SMSI       24.10   1.000   P
 SMSI       42.40   1.000   S
 APSI       26.80   1.000   P
 APSI       46.40   1.000   S
TBMCM       32.30   1.000   P
 TPCI       32.50   1.000   P
 BBCI       33.40   1.000   P
 WMCM       38.20   1.000   P
 TMSI       39.50   1.000   P
  MNI       38.20   1.000   P
 BTCM       39.20   1.000   P
TOLI2       37.60   1.000   P
 POCI       40.20   1.000   P
 TOCM       44.50   1.000   P
 LUCM       43.40   1.000   P
 PICM       43.80   1.000   P
 RKCM       47.10   1.000   P
 BGCM       46.70   1.000   P
 MPSI       47.00   1.000   P
 SRSI       46.80   1.000   P
 LOCM       47.20   1.000   P
 LKUC       47.00   1.000   P
 SDCI       48.60   1.000   P
 DOCM       49.30   1.000   P
 BLCM       49.10   1.000   P
 RDCM       54.30   1.000   P
 SANI       51.80   1.000   P
  KDI       55.40   1.000   P
 WKCM       58.60   1.000   P
 PKCI       61.90   1.000   P
 TTSI       62.90   1.000   P
 PMMI       67.00   1.000   P
 MMCI       65.70   1.000   P
 LPCM       69.00   1.000   P
 PPCM       70.80   1.000   P
 SPSI       71.40   1.000   P
 GHMI       70.50   1.000   P
 BNSI       74.40   1.000   P
 WWCI       72.30   1.000   P
 LSCM       75.80   1.000   P
 NLAI       74.20   1.000   P
 NBMI       77.40   1.000   P
 BBCM       80.70   1.000   P
 KAPI       82.40   1.000   P
 BKSI       84.80   1.000   P
NSBMM       86.70   1.000   P
  AAI       90.40   1.000   P
 BSSI       92.90   1.000   P
 SRMI       96.70   1.000   P
  LDM      100.50   1.000   P
PSJCM      101.70   1.000   P
TMTMM      103.10   1.000   P
# 2022 01 10 11 13 06.9  -03.97    119.91     10.0  2.0   0.0   0.0   0.440         34
  PCI        4.00   1.000   P
 DOCM        8.00   1.000   P
 DOCM       12.60   1.000   S
 BDCM        8.00   1.000   P
 BDCM       12.80   1.000   S
 LOCM       14.50   1.000   P
 LOCM       24.60   1.000   S
 BLCM       16.30   1.000   P
 MPSI       24.10   1.000   P
# 2022 01 10 12 15 34.9  -03.35    122.95     77.0  3.0   0.0   0.0   1.530         35
 LUWI       17.10   1.000   P
 LUWI       30.40   1.000   S
 TGCM       16.00   1.000   P
 MRSI       23.10   1.000   P
 MRSI       39.20   1.000   S
 APSI       26.30   1.000   P
 SMSI       24.60   1.000   P
 SMSI       42.90   1.000   S
TBMCM       32.20   1.000   P
TBMCM       55.80   1.000   S
TOLI2       41.80   1.000   P
 SRSI       43.60   1.000   P
 LOCM       47.90   1.000   P
# 2022 01 10 16 52 38.1  -03.09    123.43    123.0  3.7   0.0   0.0   0.620         36
 TGCM       19.40   1.000   P
 BGCI       21.40   1.000   P
 KMSI       21.90   1.000   P
 KGCM       22.20   1.000   P
 KGCM       39.00   1.000   S
 LUWI       24.40   1.000   P
 LUWI       42.10   1.000   S
TBMCM       28.20   1.000   P
 SMSI       28.00   1.000   P
 MRSI       28.00   1.000   P
 APSI       33.70   1.000   P
 TMSI       33.90   1.000   P
 TPCI       38.90   1.000   P
 BTCM       44.70   1.000   P
TOLI2       45.30   1.000   P
 SANI       48.10   1.000   P
 LUCM       51.50   1.000   P
 RKCM       52.50   1.000   P
 SRSI       52.70   1.000   P
 MPSI       53.70   1.000   P
 LOCM       54.40   1.000   P
 DOCM       55.50   1.000   P
 LBMI       60.80   1.000   P
# 2022 01 10 18 43 13.5  -02.64    122.01    188.0  3.7   0.0   0.0   0.610         37
 MRSI       24.80   1.000   P
 SMSI       26.40   1.000   P
 KGCM       28.70   1.000   P
 TPCI       28.60   1.000   P
 TPCI       49.90   1.000   S
 BBCI       29.70   1.000   P
 TGCM       29.00   1.000   P
 TGCM       52.50   1.000   S
 APSI       31.50   1.000   P
TOLI2       32.00   1.000   P
 LUWI       33.00   1.000   P
 BGCI       35.90   1.000   P
 BGCI       64.40   1.000   S
 KMSI       37.70   1.000   P
 MPSI       39.10   1.000   P
 BGCM       39.20   1.000   P
 PICM       39.20   1.000   P
 POCI       40.50   1.000   P
 BLCM       41.40   1.000   P
 SDCI       41.70   1.000   P
 LUCM       43.30   1.000   P
 DOCM       43.20   1.000   P
  PCI       43.70   1.000   P
TBMCM       44.50   1.000   P
 LOCM       45.70   1.000   P
 BDCM       45.00   1.000   P
 BTCM       46.50   1.000   P
 RDCM       49.50   1.000   P
 TOCM       49.50   1.000   P
 TMSI       49.90   1.000   P
 MTCM       49.90   1.000   P
 SRSI       49.70   1.000   P
 RKCM       53.00   1.000   P
 MSCM       53.00   1.000   P
 BUKI       53.30   1.000   P
 WUPC       58.00   1.000   P
 TTSI       61.80   1.000   P
 PSSI       63.80   1.000   P
 MMCI       64.70   1.000   P
 BNSI       77.30   1.000   P
 GHMI       84.60   1.000   P
# 2022 01 10 21 35 55.5  -05.47    121.21     10.0  3.4   0.0   0.0   1.110         38
 MTCM        3.20   1.000   P
 TOCM        4.50   1.000   P
 SRSI        5.20   1.000   P
 TLCM        7.20   1.000   P
 TLCM       14.00   1.000   S
 WMCM        9.40   1.000   P
 RKCM       10.30   1.000   P
 RKCM       20.10   1.000   S
 MSCM       17.90   1.000   P
 LKCI       20.60   1.000   P
 LKCI       35.40   1.000   S
 WUPC       21.40   1.000   P
 POCI       21.80   1.000   P
 POCI       37.80   1.000   S
 LOCM       23.80   1.000   P
 WKCM       24.90   1.000   P
 LUCM       24.80   1.000   P
 PWCM       26.00   1.000   P
 TTSI       25.80   1.000   P
 APSI       28.10   1.000   P
 MMCI       33.80   1.000   P
 PPCM       34.20   1.000   P
 LPCM       34.20   1.000   P
 RDCM       35.60   1.000   P
  KDI       36.10   1.000   P
 SPSI       36.30   1.000   P
 PICM       35.10   1.000   P
 LUWI       34.70   1.000   P
 PKCI       37.50   1.000   P
 BNSI       38.00   1.000   P
 LSCM       38.00   1.000   P
 DOCM       39.30   1.000   P
 MMSI       38.40   1.000   P
 BBCM       46.40   1.000   P
# 2022 01 11 18 48 11.5  -04.26    120.56     10.0  2.4   0.0   0.0   1.250         39
 POCI        2.90   1.000   P
 POCI        7.50   1.000   S
 LUCM        5.70   1.000   P
 LOCM        9.60   1.000   P
 LOCM       18.90   1.000   S
 DOCM       19.30   1.000   P
 RDCM       17.50   1.000   P
 RDCM       33.70   1.000   S
 PMCI       22.90   1.000   P
 TLCM       23.60   1.000   P
 TLCM       41.50   1.000   S
 MSCM       22.80   1.000   P
 SRSI       23.30   1.000   P
 TOCM       27.70   1.000   P
 BTCM       32.30   1.000   P
 RKCM       34.70   1.000   P
 MMCI       37.60   1.000   P
 MMSI       38.30   1.000   P
 LUWI       37.20   1.000   P
TOLI2       38.20   1.000   P
# 2022 01 11 20 15 26.8  -02.32    122.17     40.0  2.2   0.0   0.0   0.710         40
 MRSI       10.00   1.000   P
 SMSI       10.80   1.000   P
 SMSI       18.30   1.000   S
 KGCM       13.80   1.000   P
 BBCI       15.20   1.000   P
 TGCM       17.00   1.000   P
 TPCI       17.90   1.000   P
TOLI2       25.20   1.000   P
# 2022 01 12 19 32 26.6  -02.22    123.75    261.0  4.4   0.0   0.0   0.600         41
 KMSI       34.60   1.000   P
 KMSI       61.90   1.000   S
 TGCM       35.70   1.000   P
 TGCM       63.00   1.000   S
TBMCM       36.00   1.000   P
TBMCM       64.00   1.000   S
 KGCM       36.80   1.000   P
  MNI       38.40   1.000   P
 TMSI       38.90   1.000   P
 SMSI       39.10   1.000   P
 MRSI       42.30   1.000   P
 LUWI       43.00   1.000   P
 PSSI       49.00   1.000   P
 APSI       49.60   1.000   P
TOLI2       52.90   1.000   P
 SANI       57.60   1.000   P
 TNTI       60.00   1.000   P
 BTCM       60.40   1.000   P
 JHMI       61.40   1.000   P
 MPSI       62.70   1.000   P
 PICM       63.50   1.000   P
 BGCM       63.20   1.000   P
 LBMI       63.60   1.000   P
 LUCM       65.60   1.000   P
 TOCM       66.00   1.000   P
 WBMI       65.30   1.000   P
 BLCM       65.80   1.000   P
  PCI       67.60   1.000   P
 RKCM       68.30   1.000   P
 LOCM       68.50   1.000   P
 MGAI       68.00   1.000   P
 SRSI       68.20   1.000   P
 WHMI       68.70   1.000   P
 TLCM       68.90   1.000   P
 BDCM       69.80   1.000   P
 RDCM       73.20   1.000   P
 MTAI       72.60   1.000   P
  KDI       73.40   1.000   P
 BUKI       76.50   1.000   P
 NLAI       78.60   1.000   P
 NBMI       82.70   1.000   P
 TTSI       82.40   1.000   P
 MMCI       85.30   1.000   P
NSBMM       86.90   1.000   P
 LPCM       88.50   1.000   P
 SPSI       89.90   1.000   P
 KRAI       91.40   1.000   P
 AAII       92.90   1.000   P
  AAI       92.80   1.000   P
 MSAI       96.60   1.000   P
 TBCM       95.70   1.000   P
  LDM       98.80   1.000   P
 BBCM       99.20   1.000   P
TMTMM      101.70   1.000   P
 BKSI      101.10   1.000   P
WSTMM      107.10   1.000   P
  SWI      108.70   1.000   P
 SIJI      108.90   1.000   P
# 2022 01 12 22 07 28.5  -03.94    120.48     10.0  4.3   0.0   0.0   0.940         42
 PICM        8.90   1.000   P
 PICM       15.80   1.000   S
 LUCM        9.40   1.000   P
 POCI        9.60   1.000   P
 POCI       16.90   1.000   S
  PCI       12.80   1.000   P
 LOCM       13.60   1.000   P
 BDCM       17.30   1.000   P
 RDCM       18.10   1.000   P
 BGCM       18.80   1.000   P
 BLCM       20.70   1.000   P
 PMCI       22.90   1.000   P
 APSI       22.60   1.000   P
 MPSI       23.50   1.000   P
 TLCM       28.30   1.000   P
 SRSI       27.70   1.000   P
 TOCM       33.00   1.000   P
 MRSI       34.70   1.000   P
 WUPC       35.20   1.000   P
 BTCM       35.00   1.000   P
 TTSI       37.60   1.000   P
 RKCM       37.40   1.000   P
 MMCI       39.60   1.000   P
 LUWI       38.00   1.000   P
 BHCM       40.50   1.000   P
 SMSI       42.80   1.000   P
 LPCM       45.50   1.000   P
 PWCM       42.50   1.000   P
 BUKI       44.70   1.000   P
 KGCM       45.90   1.000   P
 TGCM       48.20   1.000   P
 WKCM       47.30   1.000   P
 PMSI       47.30   1.000   P
 SPSI       49.70   1.000   P
 SWCM       51.80   1.000   P
  KDI       57.00   1.000   P
 TBCM       60.50   1.000   P
 BBCM       63.00   1.000   P
 KAPI       63.20   1.000   P
 BKSI       66.60   1.000   P
TBMCM       69.70   1.000   P
 KUKI       75.20   1.000   P
 DBKI       84.40   1.000   P
 SANI       82.00   1.000   P
PSJCM       89.80   1.000   P
 NLAI      103.10   1.000   P
 LBMI      102.10   1.000   P
# 2022 01 13 12 51 17.9  -02.22    122.37     47.0  2.3   0.0   0.0   0.400         43
 SMSI        9.80   1.000   P
 KGCM       11.80   1.000   P
 KGCM       22.40   1.000   S
 MRSI       12.40   1.000   P
 MRSI       22.30   1.000   S
 TGCM       14.80   1.000   P
TOLI2       26.40   1.000   P
 APSI       29.50   1.000   P
# 2022 01 14 05 59 06.8  -05.93    122.34     10.0  3.5   0.0   0.0   0.520         44
 BHCM        5.20   1.000   P
 BHCM       10.10   1.000   S
 LKUC        7.00   1.000   P
 LKUC       13.60   1.000   S
 BTCM       11.90   1.000   P
 BTCM       20.90   1.000   S
 RKCM       25.30   1.000   S
 TOCM       18.80   1.000   P
 TOCM       32.60   1.000   S
 UKCM       19.30   1.000   P
 WMCM       19.40   1.000   P
  KDI       20.00   1.000   P
  KDI       34.90   1.000   S
 WKCM       25.30   1.000   P
 SRSI       26.50   1.000   P
 TLCM       28.40   1.000   P
 LUWI       32.80   1.000   P
 PWCM       35.00   1.000   P
 APSI       35.40   1.000   P
 LOCM       39.70   1.000   P
 SPSI       45.20   1.000   P
 LPCM       45.80   1.000   P
 MMCI       47.20   1.000   P
 BBCM       49.60   1.000   P
 KAPI       51.90   1.000   P
 MRSI       53.30   1.000   P
 DOCM       53.80   1.000   P
# 2022 01 14 11 35 07.2  -05.93    119.38     10.0  2.7   0.0   0.0   0.790         45
 MMCI        1.60   1.000   P
 MMCI        3.00   1.000   S
 TTSI        8.70   1.000   P
 TTSI       16.00   1.000   S
 LPCM       12.30   1.000   P
 LPCM       21.70   1.000   S
 PMSI       14.80   1.000   P
 PPCM       17.10   1.000   P
 SPSI       21.40   1.000   P
 LOCM       25.80   1.000   P
 LSCM       26.40   1.000   P
 SRSI       27.00   1.000   P
 RDCM       30.20   1.000   P
# 2022 01 14 11 39 58.1  -05.90    119.39     10.0  2.1   0.0   0.0   0.990         46
 MMCI        1.90   1.000   P
 MMCI        3.40   1.000   S
 TTSI        9.20   1.000   P
 TTSI       16.30   1.000   S
 LPCM       13.60   1.000   P
 LPCM       22.20   1.000   S
 PMSI       16.30   1.000   P
# 2022 01 14 11 41 14.7  -05.92    119.39     10.0  2.3   0.0   0.0   0.820         47
 MMCI        1.50   1.000   P
 MMCI        3.30   1.000   S
 TTSI        9.00   1.000   P
 TTSI       16.00   1.000   S
 LPCM       12.60   1.000   P
 LPCM       22.00   1.000   S
 PMSI       15.90   1.000   P
 LOCM       27.00   1.000   P
# 2022 01 14 20 21 00.6  -06.90    122.24     10.0  2.3   0.0   0.0   0.720         48
 UKCM        5.10   1.000   P
 UKCM        8.70   1.000   S
  KDI        7.60   1.000   P
 PKCI       10.60   1.000   P
 KKSI       11.80   1.000   P
 WKCM       18.80   1.000   P
 RKCM       22.10   1.000   P
# 2022 01 15 02 17 15.1  -03.63    119.85     10.0  2.9   0.0   0.0   0.670         49
 DOCM        3.20   1.000   P
 SDCI        4.40   1.000   P
 PICM        5.60   1.000   P
  PCI        5.90   1.000   P
 BDCM        7.90   1.000   P
 BDCM       13.40   1.000   S
 BLCM       11.40   1.000   P
 BLCM       18.30   1.000   S
 BGCM       11.50   1.000   P
 RDCM       14.30   1.000   P
 MPSI       18.60   1.000   P
 LOCM       20.10   1.000   P
 LOCM       34.10   1.000   S
 TLCM       34.50   1.000   P
 SRSI       37.80   1.000   P
 MMCI       40.00   1.000   P
 TOCM       41.10   1.000   P
# 2022 01 15 04 55 50.7  -04.99    122.67     12.0  3.5   0.0   0.0   0.740         50
 BTCM       17.10   1.000   P
 BTCM       30.50   1.000   S
 LUWI       18.80   1.000   P
 LUWI       31.50   1.000   S
 BHCM       17.10   1.000   P
 BHCM       32.60   1.000   S
 WMCM       19.40   1.000   P
 WMCM       35.30   1.000   S
 TOCM       26.70   1.000   P
 RKCM       26.50   1.000   P
 APSI       25.60   1.000   P
 SRSI       30.90   1.000   P
 LOCM       40.50   1.000   P
 TPCI       46.30   1.000   P
 SMSI       47.70   1.000   P
