# 2022 01 26 02 22 48.6  -02.36    121.97     10.0  2.9   0.0   0.0   1.820         74
 MRSI        2.30   1.000   P
 KGCM       19.20   1.000   P
 TPCI       17.40   1.000   P
 TGCM       22.60   1.000   P
TOLI2       25.30   1.000   P
 LUWI       31.20   1.000   P
 KMSI       35.80   1.000   P
 MPSI       35.90   1.000   P
 BGCM       37.00   1.000   P
 PICM       37.90   1.000   P
 BLCM       39.80   1.000   P
 POCI       39.10   1.000   P
 SDCI       40.40   1.000   P
TBMCM       43.10   1.000   P
 BDCM       44.10   1.000   P
# 2022 01 26 03 33 56.8  -04.38    120.53     10.0  3.7   0.0   0.0   0.470         75
 POCI        3.50   1.000   P
 LUCM        6.60   1.000   P
 LOCM        8.40   1.000   P
 LOCM       15.30   1.000   S
 PICM       14.90   1.000   P
  PCI       16.90   1.000   P
 RDCM       19.60   1.000   P
 DOCM       19.30   1.000   P
 BDCM       20.60   1.000   P
 TLCM       20.30   1.000   P
 SDCI       22.00   1.000   P
 SRSI       23.10   1.000   P
 PMCI       21.80   1.000   P
 BGCM       26.40   1.000   P
 BLCM       27.30   1.000   P
 TOCM       27.20   1.000   P
 WUPC       28.60   1.000   P
 OSSN       29.20   1.000   P
 BTCM       30.50   1.000   P
 TTSI       30.50   1.000   P
 MPSI       31.40   1.000   P
 RKCM       32.20   1.000   P
 TPCI       32.60   1.000   P
 MMCI       33.40   1.000   P
 MMSI       35.20   1.000   P
 BHCM       35.80   1.000   P
 LKCI       34.70   1.000   P
 LUWI       37.10   1.000   P
 PWCM       37.90   1.000   P
 MRSI       38.40   1.000   P
 LPCM       38.30   1.000   P
 PPCM       40.30   1.000   P
TOLI2       40.30   1.000   P
 WKCM       41.20   1.000   P
 LKUC       41.60   1.000   P
 PMSI       42.50   1.000   P
 SPSI       43.20   1.000   P
 SMSI       47.50   1.000   P
 GTOI       49.90   1.000   P
 TBCM       54.70   1.000   P
  BKB       56.10   1.000   P
 BBCM       56.90   1.000   P
 KAPI       57.20   1.000   P
 BKSI       60.70   1.000   P
  MKS       61.20   1.000   P
 KMSI       60.80   1.000   P
BBBCM       64.00   1.000   P
 KJCM       64.30   1.000   P
 WWCI       74.00   1.000   P
 KUKI       76.00   1.000   P
TARAI       82.80   1.000   P
 DBKI       84.40   1.000   P
PSJCM       84.10   1.000   P
 PKKI       96.60   1.000   P
 NBMI       97.70   1.000   P
 NLAI      100.00   1.000   P
 LBMI      102.30   1.000   P
 RNFM      103.90   1.000   P
 WBNI      104.10   1.000   P
 LBFI      103.10   1.000   P
 LRTI      106.30   1.000   P
OMBFM      106.60   1.000   P
# 2022 01 26 06 50 14.6  -02.49    121.91     13.0  4.5   0.0   0.0   0.290         76
 MRSI        2.60   1.000   P
 SMSI       13.10   1.000   P
 TPCI       16.50   1.000   P
 KGCM       18.10   1.000   P
 GTOI       18.80   1.000   P
 TGCM       21.50   1.000   P
TOLI2       24.20   1.000   P
 LUWI       29.80   1.000   P
 MPSI       33.10   1.000   P
 KMSI       34.70   1.000   P
 BGCM       35.30   1.000   P
 PICM       36.80   1.000   P
 POCI       38.00   1.000   P
 BLCM       36.90   1.000   P
 SDCI       38.50   1.000   P
 DOCM       40.00   1.000   P
 LUCM       41.40   1.000   P
  PCI       40.50   1.000   P
TBMCM       43.10   1.000   P
 BDCM       43.00   1.000   P
 LOCM       43.70   1.000   P
 RDCM       46.60   1.000   P
 BTCM       46.80   1.000   P
 PMCI       48.30   1.000   P
 TMSI       49.00   1.000   P
 TOCM       49.50   1.000   P
 MTCM       50.20   1.000   P
 SRSI       50.10   1.000   P
 LSSN       50.40   1.000   P
 BUKI       51.10   1.000   P
 BHCM       51.00   1.000   P
 RKCM       53.30   1.000   P
 LKUC       58.10   1.000   P
 WUPC       59.50   1.000   P
 OSSN       59.70   1.000   P
 TTSI       62.30   1.000   P
 PSSI       63.00   1.000   P
 MMCI       64.80   1.000   P
 SGKI       65.20   1.000   P
 UKCM       65.60   1.000   P
 WKCM       65.70   1.000   P
 MMSI       66.00   1.000   P
 PWCM       66.90   1.000   P
  KDI       67.80   1.000   P
 LPCM       69.70   1.000   P
 KKSI       69.90   1.000   P
 PPCM       71.10   1.000   P
 TBKI       71.60   1.000   P
 SMKI       71.60   1.000   P
 SANI       72.00   1.000   P
 PKCI       72.80   1.000   P
 SPSI       73.60   1.000   P
 PMSI       74.60   1.000   P
 SWCM       75.50   1.000   P
TARAI       76.80   1.000   P
 LSCM       78.10   1.000   P
  BKB       78.10   1.000   P
 TNTI       81.00   1.000   P
 JHMI       82.90   1.000   P
 LBMI       84.50   1.000   P
  LDM       85.00   1.000   P
 BBCM       85.90   1.000   P
 MGAI       87.10   1.000   P
 KAPI       87.00   1.000   P
 WBMI       87.70   1.000   P
 WWCI       88.10   1.000   P
 BBSI       88.70   1.000   P
 BKSI       89.30   1.000   P
  MKS       91.10   1.000   P
BBBCM       91.40   1.000   P
 WHMI       91.90   1.000   P
 KUKI       92.20   1.000   P
 NLAI       93.90   1.000   P
 KJCM       94.60   1.000   P
 NBMI       95.10   1.000   P
 MTAI       96.70   1.000   P
 BSSI       98.80   1.000   P
NSBMM      105.90   1.000   P
 DBKI      106.50   1.000   P
 TAMI      108.80   1.000   P
  DAV      108.70   1.000   P
 KRAI      109.60   1.000   P
 AAII      109.80   1.000   P
PSJCM      111.40   1.000   P
 MSAI      116.10   1.000   P
 SRMI      116.80   1.000   P
TMTMM      122.90   1.000   P
 SEMI      124.60   1.000   P
 LRTI      126.90   1.000   P
 RNFM      128.60   1.000   P
WSTMM      129.80   1.000   P
 ALKI      129.90   1.000   P
WFTFM      129.70   1.000   P
 ANAN      130.20   1.000   P
 WEFM      130.50   1.000   P
 MMRI      131.00   1.000   P
 WLFM      131.40   1.000   P
 EDFI      132.30   1.000   P
 WBNI      133.00   1.000   P
 BSMI      133.70   1.000   P
OMBFM      134.90   1.000   P
 BNDI      135.50   1.000   P
 PDLI      135.90   1.000   P
DBNFM      136.20   1.000   P
LBNFM      136.60   1.000   P
 PBNI      140.60   1.000   P
  SBM      142.60   1.000   P
# 2022 01 26 21 26 15.1  -05.85    121.83     10.0  3.5   0.0   0.0   0.830         77
 RKCM        4.60   1.000   P
 TOCM        7.00   1.000   P
 LSSN       15.00   1.000   P
 MTCM       14.60   1.000   P
 SRSI       16.80   1.000   P
 UKCM       18.70   1.000   P
 WKCM       21.60   1.000   P
 LKCI       21.20   1.000   P
 KKSI       25.10   1.000   P
  KDI       23.40   1.000   P
 PKCI       29.40   1.000   P
 WUPC       27.50   1.000   P
 PWCM       30.10   1.000   P
 OSSN       27.70   1.000   P
 POCI       31.90   1.000   P
 TTSI       34.60   1.000   P
 LUWI       34.70   1.000   P
 LOCM       35.40   1.000   P
 LUCM       35.40   1.000   P
 SWCM       40.50   1.000   P
 SPSI       39.10   1.000   P
 LPCM       39.80   1.000   P
 MMCI       40.30   1.000   P
 BBSI       46.70   1.000   P
 PICM       46.10   1.000   P
  PCI       45.20   1.000   P
 BBCM       45.30   1.000   P
 MMSI       45.70   1.000   P
 PMSI       46.60   1.000   P
 KAPI       47.80   1.000   P
# 2022 01 27 08 01 32.9  -03.15    122.94     83.0  3.0   0.0   0.0   0.260         78
 TGCM       16.60   1.000   P
 TGCM       29.70   1.000   S
 LUWI       18.20   1.000   P
 LUWI       33.10   1.000   S
 MRSI       21.40   1.000   P
 MRSI       38.10   1.000   S
 SMSI       22.70   1.000   P
 SMSI       40.30   1.000   S
 APSI       25.90   1.000   P
 APSI       44.90   1.000   S
# 2022 01 28 19 38 50.6  -02.75    122.38    127.0  2.7   0.0   0.0   0.810         79
 MRSI       19.20   1.000   P
 MRSI       34.40   1.000   S
 KGCM       20.80   1.000   P
 KGCM       38.00   1.000   S
 SMSI       20.90   1.000   P
 SMSI       37.10   1.000   S
 TGCM       20.80   1.000   P
 TGCM       37.70   1.000   S
 LUWI       26.20   1.000   P
 LUWI       46.60   1.000   S
 APSI       26.80   1.000   P
 APSI       47.90   1.000   S
 KMSI       30.90   1.000   P
TOLI2       31.70   1.000   P
TOLI2       55.70   1.000   S
TBMCM       37.80   1.000   P
 MPSI       40.20   1.000   P
 MPSI       71.70   1.000   S
 BLCM       43.80   1.000   P
 BLCM       75.50   1.000   S
 RDCM       49.90   1.000   P
 RDCM       87.70   1.000   S
 SANI       61.20   1.000   P
# 2022 01 28 20 12 18.5  -02.89    121.81     19.0  2.8   0.0   0.0   0.790         80
 MRSI        8.90   1.000   P
 MRSI       16.60   1.000   S
 APSI       18.70   1.000   P
 SMSI       19.60   1.000   P
 SMSI       33.90   1.000   S
 KGCM       19.70   1.000   P
 TGCM       22.80   1.000   P
 TGCM       39.80   1.000   S
TOLI2       25.30   1.000   P
TOLI2       44.00   1.000   S
 LUWI       26.60   1.000   P
 LUWI       45.10   1.000   S
 MPSI       29.90   1.000   P
 LUCM       34.70   1.000   P
 LUCM       61.40   1.000   S
 BLCM       34.40   1.000   P
 BTCM       40.90   1.000   P
 BTCM       72.40   1.000   S
 RDCM       42.80   1.000   P
TBMCM       46.00   1.000   P
TBMCM       79.40   1.000   S
# 2022 01 29 04 07 05.5  -04.33    120.51     10.0  3.0   0.0   0.0   0.980         81
 POCI        2.50   1.000   P
 LUCM        2.80   1.000   P
 LUCM        9.60   1.000   S
 PICM       13.10   1.000   P
  PCI       16.40   1.000   P
  PCI       26.70   1.000   S
 DOCM       17.80   1.000   P
 DOCM       32.40   1.000   S
 BDCM       20.20   1.000   P
 TLCM       23.00   1.000   P
 TLCM       38.30   1.000   S
 APSI       22.10   1.000   P
 APSI       39.60   1.000   S
 SRSI       22.20   1.000   P
 SRSI       38.90   1.000   S
 MTCM       24.90   1.000   P
 MTCM       42.40   1.000   S
 BGCM       25.80   1.000   P
 BLCM       27.30   1.000   P
 BLCM       45.20   1.000   S
 TOCM       27.50   1.000   P
 TOCM       49.60   1.000   S
 OSSN       29.50   1.000   P
 OSSN       51.80   1.000   S
 MPSI       31.10   1.000   P
 TTSI       33.40   1.000   P
 RKCM       33.60   1.000   P
 MMCI       33.70   1.000   P
 MMSI       35.60   1.000   P
 MMSI       62.40   1.000   S
 LPCM       39.50   1.000   P
 SMSI       47.50   1.000   P
 SMSI       82.40   1.000   S
 BBCM       59.10   1.000   P
# 2022 01 29 13 36 56.0  -02.69    121.78    183.0  3.1   0.0   0.0   0.600         82
 MRSI       24.40   1.000   P
 SMSI       26.90   1.000   P
 KGCM       29.60   1.000   P
 APSI       30.10   1.000   P
TOLI2       31.40   1.000   P
 TGCM       30.90   1.000   P
 LUWI       33.20   1.000   P
 MPSI       36.50   1.000   P
 PICM       37.00   1.000   P
 POCI       37.80   1.000   P
 BLCM       38.90   1.000   P
 SDCI       39.20   1.000   P
 KMSI       39.60   1.000   P
 DOCM       39.40   1.000   P
 LUCM       40.50   1.000   P
  PCI       40.60   1.000   P
 BDCM       41.90   1.000   P
 RDCM       46.20   1.000   P
TBMCM       47.10   1.000   P
 TOCM       50.00   1.000   P
 SRSI       47.60   1.000   P
 BUKI       50.90   1.000   P
 TTSI       59.40   1.000   P
 MMCI       61.20   1.000   P
# 2022 01 29 14 33 13.4  -03.06    122.05    253.0  3.2   0.0   0.0   0.750         83
 MRSI       33.40   1.000   P
 MRSI       59.80   1.000   S
 APSI       35.90   1.000   P
 APSI       64.50   1.000   S
 KGCM       36.30   1.000   P
 KGCM       65.80   1.000   S
 TPCI       36.50   1.000   P
 TPCI       66.00   1.000   S
 SMSI       35.20   1.000   P
 SMSI       64.10   1.000   S
 TGCM       36.30   1.000   P
 TGCM       65.40   1.000   S
 LUWI       36.60   1.000   P
 LUWI       64.90   1.000   S
TOLI2       40.30   1.000   P
TOLI2       72.10   1.000   S
 PICM       43.60   1.000   P
 BGCM       42.50   1.000   P
 MPSI       44.80   1.000   P
 MPSI       79.60   1.000   S
 LUCM       44.80   1.000   P
 SDCI       45.60   1.000   P
 BLCM       46.70   1.000   P
 BLCM       82.60   1.000   S
  PCI       47.30   1.000   P
 DOCM       46.30   1.000   P
 BTCM       46.30   1.000   P
 BDCM       48.70   1.000   P
 TOCM       49.00   1.000   P
TBMCM       48.80   1.000   P
 SRSI       49.10   1.000   P
 RDCM       51.30   1.000   P
 RKCM       51.90   1.000   P
 TMSI       54.90   1.000   P
 SWCM       71.60   1.000   P
# 2022 01 29 15 11 34.3  -05.61    121.34     10.0  2.9   0.0   0.0   1.000         84
 TOCM        1.70   1.000   P
 TOCM        3.70   1.000   S
 LSSN        4.80   1.000   P
 LSSN        9.50   1.000   S
 MTCM        5.90   1.000   P
 MTCM       11.20   1.000   S
 RKCM        6.90   1.000   P
 SRSI        8.50   1.000   P
 SRSI       15.20   1.000   S
 TLCM       11.00   1.000   P
 BTCM       11.70   1.000   P
 BTCM       21.30   1.000   S
 BHCM       16.90   1.000   P
 LKUC       20.80   1.000   P
 WKCM       22.40   1.000   P
 WKCM       38.90   1.000   S
 WUPC       22.00   1.000   P
 OSSN       22.40   1.000   P
 POCI       25.40   1.000   P
 LUCM       28.10   1.000   P
 TTSI       29.00   1.000   P
 TTSI       49.00   1.000   S
 APSI       29.40   1.000   P
 PPCM       33.80   1.000   P
 PKCI       34.10   1.000   P
 LPCM       35.10   1.000   P
 MMCI       35.90   1.000   P
 SPSI       36.20   1.000   P
 BNSI       35.30   1.000   P
 RDCM       36.60   1.000   P
 DOCM       40.30   1.000   P
 PMSI       42.70   1.000   P
 BBCM       45.60   1.000   P
 TGCM       55.20   1.000   P
 SMSI       58.60   1.000   P
TOLI2       59.10   1.000   P
# 2022 01 30 03 42 05.9  -05.82    119.38     10.0  2.7   0.0   0.0   0.520         85
 MMCI        2.80   1.000   P
 TTSI       10.50   1.000   P
 TTSI       17.90   1.000   S
 MMSI       10.10   1.000   P
 MMSI       17.70   1.000   S
 LPCM       13.60   1.000   P
 OSSN       16.10   1.000   P
 OSSN       27.60   1.000   S
 PMSI       17.10   1.000   P
 WUPC       15.60   1.000   P
 WUPC       27.90   1.000   S
 SPSI       22.80   1.000   P
 SWCM       26.90   1.000   P
 BNSI       29.70   1.000   P
# 2022 01 30 17 31 25.0  -04.34    120.50     10.0  2.3   0.0   0.0   0.830         86
 POCI        3.60   1.000   P
 POCI        7.20   1.000   S
 LUCM        3.90   1.000   P
 LUCM        8.30   1.000   S
  PCI       15.20   1.000   P
  PCI       26.30   1.000   S
 RDCM       18.10   1.000   P
 RDCM       31.50   1.000   S
 DOCM       19.90   1.000   P
 TLCM       23.60   1.000   P
 APSI       23.30   1.000   P
 SRSI       23.20   1.000   P
 MTCM       25.10   1.000   P
# 2022 01 31 18 39 30.6  -02.98    122.93    110.0  3.0   0.0   0.0   0.580         87
 TGCM       18.00   1.000   P
 KGCM       17.80   1.000   P
 BGCI       21.40   1.000   P
 LUWI       22.10   1.000   P
 MRSI       22.90   1.000   P
 SMSI       23.00   1.000   P
 KMSI       23.60   1.000   P
 APSI       27.40   1.000   P
TBMCM       30.60   1.000   P
TBMCM       53.80   1.000   S
 BBCI       31.50   1.000   P
 TPCI       31.70   1.000   P
 TMSI       37.80   1.000   P
TOLI2       38.00   1.000   P
TOLI2       68.30   1.000   S
 WMCM       40.80   1.000   P
 POCI       42.20   1.000   P
 PICM       43.10   1.000   P
 LUCM       45.90   1.000   P
 MPSI       46.80   1.000   P
 LSSN       48.80   1.000   P
# 2022 01 31 19 13 01.1  -04.22    120.36     10.0  2.6   0.0   0.0   0.860         88
 LUCM        5.70   1.000   P
 LOCM       10.20   1.000   P
 PICM       11.50   1.000   P
  PCI       12.30   1.000   P
 RDCM       15.20   1.000   P
 BDCM       16.80   1.000   P
 SDCI       18.30   1.000   P
 PMCI       19.70   1.000   P
 BGCM       23.20   1.000   P
 BLCM       23.60   1.000   P
 MSCM       23.40   1.000   P
 MSCM       42.90   1.000   S
 APSI       24.80   1.000   P
 APSI       42.90   1.000   S
 TLCM       24.00   1.000   P
 TLCM       44.30   1.000   S
 SRSI       24.90   1.000   P
 MTCM       26.40   1.000   P
 LSSN       27.20   1.000   P
 MPSI       28.50   1.000   P
 TOCM       30.80   1.000   P
 TTSI       32.10   1.000   P